{
  "type": "FeatureCollection",
  "features": [
    {"type":"Feature","properties":{"id":"A","name":"Região A","population":1200},"geometry":{"type":"Polygon","coordinates":[[[0,0],[1,0],[1,1],[0,1],[0,0]]]}},
    {"type":"Feature","properties":{"id":"B","name":"Região B","population":950},"geometry":{"type":"Polygon","coordinates":[[[1,0],[2,0],[2,1],[1,1],[1,0]]]}},
    {"type":"Feature","properties":{"id":"C","name":"Região C","population":1500},"geometry":{"type":"Polygon","coordinates":[[[2,0],[3,0],[3,1],[2,1],[2,0]]]}},
    {"type":"Feature","properties":{"id":"D","name":"Região D","population":1100},"geometry":{"type":"Polygon","coordinates":[[[0,1],[1,1],[1,2],[0,2],[0,1]]]}},
    {"type":"Feature","properties":{"id":"E","name":"Região E","population":1300},"geometry":{"type":"Polygon","coordinates":[[[1,1],[2,1],[2,2],[1,2],[1,1]]]}},
    {"type":"Feature","properties":{"id":"F","name":"Região F","population":1000},"geometry":{"type":"Polygon","coordinates":[[[2,1],[3,1],[3,2],[2,2],[2,1]]]}}
  ]
}
